STARLINK-4572           
1 53692U 22105AW  26068.67304046  .00012459  00000+0  56421-3 0  9998
2 53692  97.6182 315.6347 0001842  18.3505 341.7796 15.21020685193556
YAOGAN-36 04A           
1 54746U 22171A   26068.56522612  .00008745  00000+0  40159-3 0  9995
2 54746  34.9894 125.4870 0007143 123.6550 236.4846 15.19645021179957
